ONEWEB-0709             
1 55172U 23004AJ  24297.60430311 -.00000449  00000+0 -13034-2 0  9992
2 55172  87.8902 140.9464 0002040  54.8397 305.2922 13.11417316 87024
ONEWEB-0710             
1 55173U 23004AK  24297.56151104 -.00000032  00000+0 -11570-3 0  9990
2 55173  87.9075 125.7405 0001427  88.1588 271.9707 13.17649817 88359
ONEWEB-0711             
1 55174U 23004AL  24297.57547907  .00000250  00000+0  67041-3 0  9996
2 55174  87.8902 140.9215 0000743 103.9206 256.2004 13.11413165 86981
ONEWEB-0713             
1 55175U 23004AM  24297.59411627 -.00000407  00000+0 -11844-2 0  9993
2 55175  87.8899 140.9256 0001255  88.5051 271.6221 13.11413765 86974
ONEWEB-0715             
1 55176U 23004AN  24297.58903720 -.00000291  00000+0 -85751-3 0  9993
2 55176  87.8900 140.9268 0001498  69.0539 291.0749 13.11413680 87018
ONEWEB-0716             
1 55177U 23004AP  24297.55476435  .00000032  00000+0  48213-4 0  9993
2 55177  87.9077 125.7365 0001714  92.5537 267.5791 13.17650237 88354
ONEWEB-0717             
1 55178U 23004AQ  24297.53786801  .00000094  00000+0  20857-3 0  9994
2 55178  87.9074 125.7021 0000695  80.0033 280.1177 13.17651907 88401
ONEWEB-0719             
1 55179U 23004AR  24297.54800344  .00000117  00000+0  26757-3 0  9996
2 55179  87.9074 125.6854 0001624  95.7306 264.4010 13.17648765 88357
ONEWEB-0530             
1 55796U 23029A   24297.50576106  .00000068  00000+0  13484-3 0  9998
2 55796  87.9296  34.1651 0001428 119.6104 240.5172 13.20775351 81725
ONEWEB-0534             
1 55797U 23029B   24297.56890256  .00000006  00000+0 -18209-4 0  9994
2 55797  87.9294  34.1592 0001870  98.8876 261.2469 13.20770446 81733
ONEWEB-0556             
1 55798U 23029C   24297.57521408  .00000143  00000+0  31920-3 0  9991
2 55798  87.9296  34.1515 0002415 124.6642 235.4719 13.20773021 81739
ONEWEB-0562             
1 55799U 23029D   24297.56257863 -.00000271  00000+0 -69794-3 0  9996
2 55799  87.9294  34.1454 0001620 136.5216 223.6045 13.20772999 81730
ONEWEB-0563             
1 55800U 23029E   24297.55628820  .00000071  00000+0  14297-3 0  9997
2 55800  87.9295  34.1612 0002133 101.6065 258.5307 13.20769761 81725
ONEWEB-0564             
1 55801U 23029F   24297.54996174  .00000073  00000+0  14858-3 0  9992
2 55801  87.9297  34.1495 0001464 112.4953 247.6336 13.20770582 81734
ONEWEB-0638             
1 55802U 23029G   24297.60585494  .00000314  00000+0  81273-3 0  9992
2 55802  87.9019  49.3840 0002043 118.7903 241.3432 13.14508361 80360
ONEWEB-0639             
1 55803U 23029H   24297.65311460  .00000065  00000+0  13009-3 0  9993
2 55803  87.9161  64.6009 0002911  85.9274 274.2192 13.19723230 79563
ONEWEB-0640             
1 55804U 23029J   24297.61538918  .00000239  00000+0  61060-3 0  9992
2 55804  87.9018  49.3751 0002448 113.2873 246.8515 13.14501491 80388
ONEWEB-0641             
1 55805U 23029K   24297.64836526  .00000048  00000+0  86920-4 0  9993
2 55805  87.9159  64.5803 0001884  92.8035 267.3314 13.19727944 79579
ONEWEB-0642             
1 55806U 23029L   24297.64362528  .00000065  00000+0  13072-3 0  9996
2 55806  87.9164  64.6091 0002580  82.0808 278.0618 13.19728297 79566
ONEWEB-0643             
1 55807U 23029M   24297.58525866 -.00000115  00000+0 -34409-3 0  9991
2 55807  87.9018  49.3594 0002169  76.7998 283.3373 13.14502528 80354
ONEWEB-0644             
1 55808U 23029N   24297.63891102  .00000057  00000+0  11006-3 0  9998
2 55808  87.9165  64.6087 0002157  86.1452 273.9927 13.19725273 79562
ONEWEB-0645             
1 55809U 23029P   24297.63493705  .00000425  00000+0  10302-2 0  9992
2 55809  87.9161  64.6085 0002545  97.8278 262.3144 13.19729257 79562
ONEWEB-0646             
1 55810U 23029Q   24297.58913036  .00000984  00000+0  24259-2 0  9998
2 55810  87.9161  64.6154 0001778  91.7733 268.3603 13.19734194 79547
ONEWEB-0648             
1 55811U 23029R   24297.55353428  .00000069  00000+0  15245-3 0  9999
2 55811  87.9022  49.3384 0002731  94.0862 266.0580 13.14499719 80354
ONEWEB-0649             
1 55812U 23029S   24297.62783482  .00000053  00000+0  10069-3 0  9997
2 55812  87.9157  64.6005 0002182  93.6760 266.4622 13.19721867 79587
ONEWEB-0650             
1 55813U 23029T   24297.62309991  .00000080  00000+0  16782-3 0  9995
2 55813  87.9161  64.6062 0001834  92.7687 267.3656 13.19721766 79559
ONEWEB-0652             
1 55814U 23029U   24297.38226993  .00000078  00000+0  17701-3 0  9998
2 55814  87.9017  49.3837 0001559 100.6435 259.4870 13.14502021 80305
ONEWEB-0653             
1 55815U 23029V   24297.59476912  .00000068  00000+0  14964-3 0  9997
2 55815  87.9021  49.3246 0001787 110.4995 249.6326 13.14501482 80361
ONEWEB-0654             
1 55816U 23029W   24297.59001188 -.00000037  00000+0 -13513-3 0  9994
2 55816  87.9017  49.3323 0001442 114.0292 246.0989 13.14501767 80385
ONEWEB-0656             
1 55817U 23029X   24297.54366037  .00000041  00000+0  68920-4 0  9993
2 55817  87.9299  34.0926 0001092 104.9265 255.1989 13.20771380 81735
ONEWEB-0657             
1 55818U 23029Y   24297.61835533  .00000215  00000+0  50413-3 0  9994
2 55818  87.9160  64.6125 0001075  71.1336 288.9913 13.19723259 79567
ONEWEB-0658             
1 55819U 23029Z   24297.61362988  .00000066  00000+0  13258-3 0  9994
2 55819  87.9161  64.5480 0002118  86.8481 273.2894 13.19722998 79570
ONEWEB-0660             
1 55820U 23029AA  24297.56781073 -.00000084  00000+0 -26060-3 0  9997
2 55820  87.9019  49.3104 0002172 103.2118 256.9254 13.14503832 80365
ONEWEB-0661             
1 55821U 23029AB  24297.37434836  .00000255  00000+0  65330-3 0  9990
2 55821  87.9020  49.4172 0002118 107.7939 252.3422 13.14500587 80321
ONEWEB-0662             
1 55822U 23029AC  24297.56145740  .00000007  00000+0 -15566-4 0  9998
2 55822  87.9020  49.3869 0002108  99.1637 260.9731 13.14500682 80393
ONEWEB-0663             
1 55823U 23029AD  24297.53427732  .00000066  00000+0  13089-3 0  9991
2 55823  87.9295  34.1527 0002276 100.6284 259.5106 13.20805331 81727
ONEWEB-0664             
1 55824U 23029AE  24297.30378127 -.00002362  00000+0 -58437-2 0  9998
2 55824  87.9300  34.2145 0001759 115.9687 244.1628 13.20750395 81697
ONEWEB-0665             
1 55825U 23029AF  24297.59952774  .00000174  00000+0  43600-3 0  9990
2 55825  87.9020  49.3470 0002017 101.9381 258.1975 13.14502031 80378
ONEWEB-0666             
1 55826U 23029AG  24297.52471663  .00000060  00000+0  11500-3 0  9995
2 55826  87.9296  34.1608 0001353 103.2314 256.8970 13.20773092 81737
ONEWEB-0667             
1 55827U 23029AH  24297.51839868  .00000005  00000+0 -18698-4 0  9996
2 55827  87.9295  34.0952 0001944 104.0112 256.1238 13.20768332 81729
ONEWEB-0669             
1 55828U 23029AJ  24297.51365277  .00000061  00000+0  11804-3 0  9997
2 55828  87.9296  34.1330 0001357 124.0553 236.0710 13.20776360 81723
ONEWEB-0670             
1 55829U 23029AK  24297.57731914 -.00000088  00000+0 -27159-3 0  9990
2 55829  87.9021  49.3612 0002059 112.0061 248.1288 13.14504442 81088
ONEWEB-0671             
1 55830U 23029AL  24297.60889210  .00000079  00000+0  16589-3 0  9992
2 55830  87.9161  64.6110 0001881 104.2324 255.9018 13.19726110 79554
ONEWEB-0672             
1 55831U 23029AM  24297.50892707  .00000034  00000+0  51650-4 0  9997
2 55831  87.9298  34.1185 0001368  97.3264 262.8025 13.20770909 81729
ONEWEB-0673             
1 55832U 23029AN  24297.43354787 -.00000043  00000+0 -14017-3 0  9998
2 55832  87.9159  64.6114 0001901  90.5547 269.5804 13.19728080 79534
ONEWEB-0674             
1 55833U 23029AP  24297.54560904  .00000229  00000+0  58291-3 0  9997
2 55833  87.9021  49.3666 0002113 111.9174 248.2180 13.14503056 80379
ONEWEB-0675             
1 55834U 23029AQ  24297.60098161  .00000101  00000+0  21903-3 0  9995
2 55834  87.9165  64.6166 0001512  85.3907 274.7398 13.19727184 79574
ONEWEB-0720             
1 55835U 23029AR  24297.59308730  .00000185  00000+0  43084-3 0  9996
2 55835  87.9164  64.6170 0002171  95.1093 265.0288 13.19723704 79492
ONEWEB-0537             
1 56046U 23043A   24297.60266910  .00000021  00000+0  20144-4 0  9994
2 56046  87.9133 348.5997 0001660  92.2320 267.9000 13.16594079 79803
ONEWEB-0538             
1 56047U 23043B   24297.59633705  .00000071  00000+0  15118-3 0  9992
2 56047  87.9132 348.6218 0001967  90.4746 269.6611 13.16593782 79810
ONEWEB-0546             
1 56048U 23043C   24297.58361147  .00007378  00000+0  19235-1 0  9999
2 56048  87.9154 348.5928 0001412  98.7607 261.3684 13.16645743 79807
ONEWEB-0547             
1 56049U 23043D   24297.61438803  .00000070  00000+0  13704-3 0  9997
2 56049  87.9357   3.7986 0001907  92.5966 267.5386 13.21827752 78754
ONEWEB-0548             
1 56050U 23043E   24297.60900233  .00000087  00000+0  19386-3 0  9999
2 56050  87.9133 348.6274 0002071 112.0040 248.1311 13.16593757 79802
ONEWEB-0549             
1 56051U 23043F   24297.60572486  .00000093  00000+0  19485-3 0  9992
2 56051  87.9356   3.8010 0002005  84.6725 275.4638 13.21826900 78752
ONEWEB-0550             
1 56052U 23043G   24297.59310825  .00000053  00000+0  96069-4 0  9998
2 56052  87.9353   3.8063 0001947 105.0256 255.1093 13.21827013 78755
ONEWEB-0551             
1 56053U 23043H   24297.61782827  .00000077  00000+0  16959-3 0  9992
2 56053  87.9129  18.9715 0002010  95.7023 264.4337 13.15548033 77306
ONEWEB-0552             
1 56054U 23043J   24297.58680445 -.00000039  00000+0 -12625-3 0  9998
2 56054  87.9350   3.8173 0002173 101.3241 258.8137 13.21824040 78757
ONEWEB-0553             
1 56055U 23043K   24297.58999877  .00000117  00000+0  27237-3 0  9991
2 56055  87.9133 348.6194 0001527  93.6315 266.4991 13.16592011 79812
ONEWEB-0554             
1 56056U 23043L   24297.57732716 -.00000013  00000+0 -66769-4 0  9999
2 56056  87.9135 348.6464 0002255 112.4991 247.6379 13.16591280 79799
